QIANFAN-161             
1 69120U 26108S   26191.98596632 -.02065796  00000+0 -21326+1 0  9992
2 69120  89.0095  19.6300 0019933  52.7779 307.5204 13.80034218  7673
QIANFAN-162             
1 69121U 26108T   26191.96015397 -.01995090  00000+0 -22951+1 0  9998
2 69121  89.0097  19.6412 0019965  26.0878 334.1287 13.73384966  7654
QIANFAN-163             
1 69325U 26121A   26189.97247712  .00000008  00000+0 -66399-5 0  9998
2 69325  89.0049 298.3591 0020480 118.5630 241.7588 13.53894414  5116
QIANFAN-164             
1 69326U 26121B   26193.78202227  .00000060  00000+0  74993-4 0  9990
2 69326  89.0183 297.9605 0022831 114.9403 245.4123 13.49695424  5624
QIANFAN-165             
1 69382U 26124A   26193.84408353 -.01911400  00000+0 -15937+1 0  9991
2 69382  88.9993 359.1619 0005900  80.5127 279.6714 13.92331709  5433
QIANFAN-166             
1 69383U 26124B   26193.81363957 -.01913304  00000+0 -15349+1 0  9991
2 69383  88.9991 359.1575 0008372  96.3150 263.8980 13.94547285  5430
QIANFAN-167             
1 69384U 26124C   26193.83738264 -.02172699  00000+0 -18156+1 0  9995
2 69384  88.9990 359.1608 0008802  89.2577 270.9606 13.92727458  5433
QIANFAN-168             
1 69385U 26124D   26193.73547022 -.01969488  00000+0 -16184+1 0  9993
2 69385  88.9993 359.1633 0008293  91.0255 269.1870 13.93280970  5429
QIANFAN-169             
1 69386U 26124E   26193.79313683 -.01901274  00000+0 -15311+1 0  9994
2 69386  88.9989 359.1530 0009858  97.7140 262.5155 13.94297420  5438
QIANFAN-170             
1 69387U 26124F   26193.77198427 -.01891744  00000+0 -14759+1 0  9995
2 69387  88.9991 359.1504 0009754  93.8761 266.3531 13.96092845  5430
QIANFAN-171             
1 69388U 26124G   26193.82852733 -.01825081  00000+0 -14388+1 0  9998
2 69388  88.9989 359.1405 0009802 113.4121 246.8087 13.96019834  5448
QIANFAN-172             
1 69389U 26124H   26193.83158867 -.01973676  00000+0 -15114+1 0  9999
2 69389  88.9990 359.1417 0010019  86.9405 273.2919 13.97319378  5440
QIANFAN-173             
1 69390U 26124J   26193.81580110 -.01936338  00000+0 -14801+1 0  9995
2 69390  88.9989 359.1387 0010086  91.5769 268.6563 13.97347617  5445
QIANFAN-174             
1 69391U 26124K   26193.79789294 -.02202889  00000+0 -15746+1 0  9994
2 69391  88.9985 359.1361 0005484 163.9561 196.1793 14.01711143  5438
QIANFAN-175             
1 69392U 26124L   26193.79792727 -.01925776  00000+0 -14576+1 0  9996
2 69392  88.9993 359.1353 0010624  93.4195 266.8198 13.97886597  5446
QIANFAN-176             
1 69393U 26124M   26193.79481747 -.02020938  00000+0 -14895+1 0  9995
2 69393  88.9995 359.1349 0006778  73.8671 286.3253 13.99602377  5432
